{"type": "FeatureCollection", "features": [ {"type": "Feature", "properties": {"norad_id": 37424, "name": "FENGYUN 1C DEB", "group": "fengyun-1c-debris", "lat": 19.012692041973864, "lon": 110.42607487509693, "alt_km": 823.9897260602911, "timestamp": "2025-12-09T21:34:11.697266+00:00", "meta": {"OBJECT_NAME": "FENGYUN 1C DEB", "OBJECT_ID": "1999-025EGS", "EPOCH": "2025-11-26T15:03:16.540128", "MEAN_MOTION": 14.17748147, "ECCENTRICITY": 0.02143557, "INCLINATION": 97.1976, "RA_OF_ASC_NODE": 102.1461, "ARG_OF_PERICENTER": 331.0381, "MEAN_ANOMALY": 27.9039, "EPHEMERIS_TYPE": 0, "CLASSIFICATION_TYPE": "U", "NORAD_CAT_ID": 37424, "ELEMENT_SET_NO": 999, "REV_AT_EPOCH": 68345, "BSTAR": 0.00085242664, "MEAN_MOTION_DOT": 2.145e-05, "MEAN_MOTION_DDOT": 0}, "tle": {"line1": "1 37424U 99025EGS 25330.62727477  .00002145  00000+0  85243-3 0  9996", "line2": "2 37424  97.1976 102.1461 0214355 331.0381  27.9039 14.17748147683455"}}, "geometry": {"type": "Point", "coordinates": [110.42607487509693, 19.012692041973864]}}, {"type": "Feature", "properties": {"norad_id": 37427, "name": "FENGYUN 1C DEB", "group": "fengyun-1c-debris", "lat": -39.68582614864965, "lon": 132.70170657142455, "alt_km": 451.65554821203386, "timestamp": "2025-12-09T21:34:11.697277+00:00", "meta": {"OBJECT_NAME": "FENGYUN 1C DEB", "OBJECT_ID": "1999-025EGV", "EPOCH": "2025-11-25T03:26:10.747680", "MEAN_MOTION": 14.97768919, "ECCENTRICITY": 0.01887185, "INCLINATION": 98.6232, "RA_OF_ASC_NODE": 109.1733, "ARG_OF_PERICENTER": 355.7363, "MEAN_ANOMALY": 4.2239, "EPHEMERIS_TYPE": 0, "CLASSIFICATION_TYPE": "U", "NORAD_CAT_ID": 37427, "ELEMENT_SET_NO": 999, "REV_AT_EPOCH": 60059, "BSTAR": 0.00046451943, "MEAN_MOTION_DOT": 7.8e-05, "MEAN_MOTION_DDOT": 0}, "tle": {"line1": "1 37427U 99025EGV 25329.14317995  .00007800  00000+0  46452-3 0  9996", "line2": "2 37427  98.6232 109.1733 0188718 355.7363   4.2239 14.97768919600595"}}, "geometry": {"type": "Point", "coordinates": [132.70170657142455, -39.68582614864965]}}, {"type": "Feature", "properties": {"norad_id": 37428, "name": "FENGYUN 1C DEB", "group": "fengyun-1c-debris", "lat": 79.99674692951625, "lon": 156.5703004316551, "alt_km": 731.8726001349787, "timestamp": "2025-12-09T21:34:11.697287+00:00", "meta": {"OBJECT_NAME": "FENGYUN 1C DEB", "OBJECT_ID": "1999-025EGW", "EPOCH": "2025-12-08T08:21:22.529088", "MEAN_MOTION": 14.34566274, "ECCENTRICITY": 0.00566929, "INCLINATION": 97.7218, "RA_OF_ASC_NODE": 205.4682, "ARG_OF_PERICENTER": 112.0181, "MEAN_ANOMALY": 248.7043, "EPHEMERIS_TYPE": 0, "CLASSIFICATION_TYPE": "U", "NORAD_CAT_ID": 37428, "ELEMENT_SET_NO": 999, "REV_AT_EPOCH": 63373, "BSTAR": 0.0023264608, "MEAN_MOTION_DOT": 6.657e-05, "MEAN_MOTION_DDOT": 0}, "tle": {"line1": "1 37428U 99025EGW 25342.34817742  .00006657  00000+0  23265-2 0  9994", "line2": "2 37428  97.7218 205.4682 0056692 112.0181 248.7043 14.34566274633731"}}, "geometry": {"type": "Point", "coordinates": [156.5703004316551, 79.99674692951625]}}, {"type": "Feature", "properties": {"norad_id": 37430, "name": "FENGYUN 1C DEB", "group": "fengyun-1c-debris", "lat": -34.33961264133204, "lon": -128.06153128106263, "alt_km": 810.9847653401112, "timestamp": "2025-12-09T21:34:11.697297+00:00", "meta": {"OBJECT_NAME": "FENGYUN 1C DEB", "OBJECT_ID": "1999-025EGY", "EPOCH": "2025-12-05T03:58:16.719456", "MEAN_MOTION": 14.28846273, "ECCENTRICITY": 0.001883, "INCLINATION": 98.7668, "RA_OF_ASC_NODE": 53.2332, "ARG_OF_PERICENTER": 93.5332, "MEAN_ANOMALY": 266.8003, "EPHEMERIS_TYPE": 0, "CLASSIFICATION_TYPE": "U", "NORAD_CAT_ID": 37430, "ELEMENT_SET_NO": 999, "REV_AT_EPOCH": 61593, "BSTAR": 0.0038447795, "MEAN_MOTION_DOT": 9.683e-05, "MEAN_MOTION_DDOT": 0}, "tle": {"line1": "1 37430U 99025EGY 25339.16547129  .00009683  00000+0  38448-2 0  9993", "line2": "2 37430  98.7668  53.2332 0018830  93.5332 266.8003 14.28846273615930"}}, "geometry": {"type": "Point", "coordinates": [-128.06153128106263, -34.33961264133204]}}, {"type": "Feature", "properties": {"norad_id": 37432, "name": "FENGYUN 1C DEB", "group": "fengyun-1c-debris", "lat": 40.6095819612676, "lon": -9.853396134935949, "alt_km": 741.1774868815583, "timestamp": "2025-12-09T21:34:11.697308+00:00", "meta": {"OBJECT_NAME": "FENGYUN 1C DEB", "OBJECT_ID": "1999-025EHA", "EPOCH": "2025-12-06T07:27:47.805408", "MEAN_MOTION": 14.53346656, "ECCENTRICITY": 0.01823259, "INCLINATION": 98.1843, "RA_OF_ASC_NODE": 353.7286, "ARG_OF_PERICENTER": 307.9261, "MEAN_ANOMALY": 50.5575, "EPHEMERIS_TYPE": 0, "CLASSIFICATION_TYPE": "U", "NORAD_CAT_ID": 37432, "ELEMENT_SET_NO": 999, "REV_AT_EPOCH": 8283, "BSTAR": 0.0014568168, "MEAN_MOTION_DOT": 7.499e-05, "MEAN_MOTION_DDOT": 0}, "tle": {"line1": "1 37432U 99025EHA 25340.31096997  .00007499  00000+0  14568-2 0  9996", "line2": "2 37432  98.1843 353.7286 0182325 307.9261  50.5575 14.53346656 82838"}}, "geometry": {"type": "Point", "coordinates": [-9.853396134935949, 40.6095819612676]}}, {"type": "Feature", "properties": {"norad_id": 37435, "name": "FENGYUN 1C DEB", "group": "fengyun-1c-debris", "lat": -81.33898767199094, "lon": 107.8476526970711, "alt_km": 835.7067016364472, "timestamp": "2025-12-09T21:34:11.697318+00:00", "meta": {"OBJECT_NAME": "FENGYUN 1C DEB", "OBJECT_ID": "1999-025EHD", "EPOCH": "2025-12-09T08:28:59.535840", "MEAN_MOTION": 14.22339891, "ECCENTRICITY": 0.00404486, "INCLINATION": 98.648, "RA_OF_ASC_NODE": 19.7275, "ARG_OF_PERICENTER": 24.2253, "MEAN_ANOMALY": 336.0816, "EPHEMERIS_TYPE": 0, "CLASSIFICATION_TYPE": "U", "NORAD_CAT_ID": 37435, "ELEMENT_SET_NO": 999, "REV_AT_EPOCH": 88891, "BSTAR": 0.0015347361, "MEAN_MOTION_DOT": 3.4e-05, "MEAN_MOTION_DDOT": 0}, "tle": {"line1": "1 37435U 99025EHD 25343.35346685  .00003400  00000+0  15347-2 0  9992", "line2": "2 37435  98.6480  19.7275 0040448  24.2253 336.0816 14.22339891888911"}}, "geometry": {"type": "Point", "coordinates": [107.8476526970711, -81.33898767199094]}}, {"type": "Feature", "properties": {"norad_id": 37436, "name": "FENGYUN 1C DEB", "group": "fengyun-1c-debris", "lat": 18.96158918404033, "lon": -138.47404158764053, "alt_km": 828.9700203110197, "timestamp": "2025-12-09T21:34:11.697328+00:00", "meta": {"OBJECT_NAME": "FENGYUN 1C DEB", "OBJECT_ID": "1999-025EHE", "EPOCH": "2025-12-08T08:57:07.720992", "MEAN_MOTION": 14.06336267, "ECCENTRICITY": 0.00596162, "INCLINATION": 98.9375, "RA_OF_ASC_NODE": 36.9205, "ARG_OF_PERICENTER": 160.2305, "MEAN_ANOMALY": 200.1192, "EPHEMERIS_TYPE": 0, "CLASSIFICATION_TYPE": "U", "NORAD_CAT_ID": 37436, "ELEMENT_SET_NO": 999, "REV_AT_EPOCH": 63937, "BSTAR": 0.0011550832, "MEAN_MOTION_DOT": 1.893e-05, "MEAN_MOTION_DDOT": 0}, "tle": {"line1": "1 37436U 99025EHE 25342.37300603  .00001893  00000+0  11551-2 0  9991", "line2": "2 37436  98.9375  36.9205 0059616 160.2305 200.1192 14.06336267639376"}}, "geometry": {"type": "Point", "coordinates": [-138.47404158764053, 18.96158918404033]}}, {"type": "Feature", "properties": {"norad_id": 37437, "name": "FENGYUN 1C DEB", "group": "fengyun-1c-debris", "lat": -49.26551249353651, "lon": -14.028495378242832, "alt_km": 858.3066591044562, "timestamp": "2025-12-09T21:34:11.697358+00:00", "meta": {"OBJECT_NAME": "FENGYUN 1C DEB", "OBJECT_ID": "1999-025EHF", "EPOCH": "2025-11-30T18:36:25.322976", "MEAN_MOTION": 14.18810149, "ECCENTRICITY": 0.0113368, "INCLINATION": 98.5859, "RA_OF_ASC_NODE": 327.0314, "ARG_OF_PERICENTER": 82.7284, "MEAN_ANOMALY": 94.5607, "EPHEMERIS_TYPE": 0, "CLASSIFICATION_TYPE": "U", "NORAD_CAT_ID": 37437, "ELEMENT_SET_NO": 999, "REV_AT_EPOCH": 63821, "BSTAR": 0.0004989187, "MEAN_MOTION_DOT": 1.064e-05, "MEAN_MOTION_DDOT": 0}, "tle": {"line1": "1 37437U 99025EHF 25334.77529309  .00001064  00000+0  49892-3 0  9993", "line2": "2 37437  98.5859 327.0314 0113368  82.7284  94.5607 14.18810149638211"}}, "geometry": {"type": "Point", "coordinates": [-14.028495378242832, -49.26551249353651]}}, {"type": "Feature", "properties": {"norad_id": 37438, "name": "FENGYUN 1C DEB", "group": "fengyun-1c-debris", "lat": 4.304583536495794, "lon": 22.277064042752002, "alt_km": 857.5904773529865, "timestamp": "2025-12-09T21:34:11.697369+00:00", "meta": {"OBJECT_NAME": "FENGYUN 1C DEB", "OBJECT_ID": "1999-025EHG", "EPOCH": "2025-12-09T07:58:39.452448", "MEAN_MOTION": 14.1550467, "ECCENTRICITY": 0.00287361, "INCLINATION": 98.7401, "RA_OF_ASC_NODE": 22.3854, "ARG_OF_PERICENTER": 230.9593, "MEAN_ANOMALY": 128.9023, "EPHEMERIS_TYPE": 0, "CLASSIFICATION_TYPE": "U", "NORAD_CAT_ID": 37438, "ELEMENT_SET_NO": 999, "REV_AT_EPOCH": 60087, "BSTAR": 0.001051415, "MEAN_MOTION_DOT": 2.019e-05, "MEAN_MOTION_DDOT": 0}, "tle": {"line1": "1 37438U 99025EHG 25343.33240107  .00002019  00000+0  10514-2 0  9991", "line2": "2 37438  98.7401  22.3854 0028736 230.9593 128.9023 14.15504670600876"}}, "geometry": {"type": "Point", "coordinates": [22.277064042752002, 4.304583536495794]}}, {"type": "Feature", "properties": {"norad_id": 37441, "name": "FENGYUN 1C DEB", "group": "fengyun-1c-debris", "lat": -80.06140633933867, "lon": -102.02780625197344, "alt_km": 1534.2196633320382, "timestamp": "2025-12-09T21:34:11.697379+00:00", "meta": {"OBJECT_NAME": "FENGYUN 1C DEB", "OBJECT_ID": "1999-025EHK", "EPOCH": "2025-12-03T07:03:35.157888", "MEAN_MOTION": 13.14191734, "ECCENTRICITY": 0.0507983, "INCLINATION": 99.1467, "RA_OF_ASC_NODE": 185.4052, "ARG_OF_PERICENTER": 77.3697, "MEAN_ANOMALY": 288.3712, "EPHEMERIS_TYPE": 0, "CLASSIFICATION_TYPE": "U", "NORAD_CAT_ID": 37441, "ELEMENT_SET_NO": 999, "REV_AT_EPOCH": 82048, "BSTAR": 0.00191, "MEAN_MOTION_DOT": 1.323e-05, "MEAN_MOTION_DDOT": 0}, "tle": {"line1": "1 37441U 99025EHK 25337.29415692  .00001323  00000+0  19100-2 0  9993", "line2": "2 37441  99.1467 185.4052 0507983  77.3697 288.3712 13.14191734820480"}}, "geometry": {"type": "Point", "coordinates": [-102.02780625197344, -80.06140633933867]}}]}